[{"OBJECT_NAME":"STARLINK-30790","OBJECT_ID":"2023-162K","EPOCH":"2026-03-09T05:19:51.961152","MEAN_MOTION":15.13105037,"ECCENTRICITY":0.00103438,"INCLINATION":42.9975,"RA_OF_ASC_NODE":130.2155,"ARG_OF_PERICENTER":31.6175,"MEAN_ANOMALY":328.5291,"EPHEMERIS_TYPE":0,"CLASSIFICATION_TYPE":"U","NORAD_CAT_ID":58127,"ELEMENT_SET_NO":999,"REV_AT_EPOCH":13229,"BSTAR":0.0021713056,"MEAN_MOTION_DOT":0.00039164,"MEAN_MOTION_DDOT":0},{"OBJECT_NAME":"CURIUM ONE","OBJECT_ID":"2024-128H","EPOCH":"2026-03-09T16:29:14.303904","MEAN_MOTION":15.10847276,"ECCENTRICITY":0.00508907,"INCLINATION":61.979,"RA_OF_ASC_NODE":197.7537,"ARG_OF_PERICENTER":110.7183,"MEAN_ANOMALY":249.9377,"EPHEMERIS_TYPE":0,"CLASSIFICATION_TYPE":"U","NORAD_CAT_ID":60242,"ELEMENT_SET_NO":999,"REV_AT_EPOCH":9141,"BSTAR":0.00074106619,"MEAN_MOTION_DOT":0.00012574,"MEAN_MOTION_DDOT":0}]
